24967,IRIDIUM 36,1997,100.19,-1.0,-,86.4,Inactive,0,LEO,USA,USA,Unknown,Unknown,Unknown,1 24967U 97056C   24343.48119478  .00001051  00000+0  34633-3 0  9991,2 24967  86.3971 253.0617 0002002  80.2078 279.9345 14.37280906424826,14.37280906,0.0002002,LEO
25042,IRIDIUM 39,1997,99.4,-1.0,-,86.39,Inactive,0,LEO,USA,USA,Unknown,Unknown,Unknown,1 25042U 97069D   24343.39124655  .00001916  00000+0  50265-3 0  9992,2 25042  86.3896 292.9404 0016269 218.6454 141.3586 14.48699142421338,14.48699142,0.0016269,LEO
25043,IRIDIUM 38,1997,100.16,-1.0,-,86.39,Inactive,0,LEO,USA,USA,Unknown,Unknown,Unknown,1 25043U 97069E   24343.43150537  .00001365  00000+0  44735-3 0  9999,2 25043  86.3940 313.4338 0003146  50.3459 309.8016 14.37765828418541,14.37765828,0.0003146,LEO
25077,IRIDIUM 42,1997,100.28,-1.0,-,86.39,Inactive,0,LEO,PRC,USA,Unknown,Unknown,Unknown,1 25077U 97077A   24343.48379450  .00001209  00000+0  40950-3 0  9999,2 25077  86.3947 319.3477 0002661  72.9504 287.1984 14.36027661413829,14.36027661,0.0002661,LEO
25078,IRIDIUM 44,1997,100.01,-1.0,-,86.39,Inactive,0,LEO,PRC,USA,Unknown,Unknown,Unknown,1 25078U 97077B   24343.39566456  .00001310  00000+0  41086-3 0  9998,2 25078  86.3937 301.8081 0001156  33.1961 326.9311 14.39896487416248,14.39896487,0.0001156,LEO
25104,IRIDIUM 45,1997,95.21,-1.0,-,86.36,Inactive,0,LEO,USA,USA,Unknown,Unknown,Unknown,1 25104U 97082A   24343.51394995  .00022523  00000+0  10231-2 0  9991,2 25104  86.3631 139.7955 0137232 321.8256  37.3322 15.12510267423127,15.12510267,0.0137232,LEO
25105,IRIDIUM 24,1997,99.88,-1.0,-,86.39,Inactive,0,LEO,USA,USA,Unknown,Unknown,Unknown,1 25105U 97082B   24343.54299585  .00001200  00000+0  36196-3 0  9992,2 25105  86.3921 161.1104 0011266 358.3705   1.7456 14.41718701415743,14.41718701,0.0011266,LEO
25262,IRIDIUM 51,1998,94.52,-1.0,-,86.39,Inactive,0,LEO,PRC,USA,Unknown,Unknown,Unknown,1 25262U 98018A   24343.54536562  .00039713  00000+0  13706-2 0  9996,2 25262  86.3910 149.0204 0116010 254.9252 103.9134 15.23505805417843,15.23505805,0.011601,LEO
